CZ-2D R/B               
1 28738U 05024B   26111.62708061  .00039129  00000+0  41462-3 0  9993
2 28738  97.3547 128.4710 0004127 181.6567 178.4679 15.64020507146481
ALOS (DAICHI)           
1 28931U 06002A   26111.86592882  .00000828  00000+0  14667-3 0  9994
2 28931  98.1282  67.6288 0001832 107.9800 252.1605 14.69929675 79826
H-2A R/B                
1 28932U 06002B   26111.68441794  .00007285  00000+0  35637-3 0  9994
2 28932  98.2502 262.4586 0052607  95.5334 265.1900 15.17319918100957
RESURS-DK 1             
1 29228U 06021A   26111.77680679  .00001513  00000+0  91716-4 0  9990
2 29228  69.9297 125.5493 0002926 348.3924  11.7174 15.12967535 94040
CZ-4B R/B               
1 29507U 06046C   26111.48080461  .00003880  00000+0  19514-3 0  9992
2 29507  97.5509 156.2670 0034537 118.2041 242.2688 15.17313585 66537
CZ-2C R/B               
1 31114U 07010B   26111.84143370  .00000087  00000+0  58854-4 0  9997
2 31114  98.4030 222.9674 0059335 167.6705 192.5940 14.20261120985848
COSMO-SKYMED 1          
1 31598U 07023A   26111.85293406  .00001887  00000+0  16997-3 0  9994
2 31598  97.8869 303.2406 0001085  97.1967 262.9377 14.96818434 21362
COSMOS 2428             
1 31792U 07029A   26111.36567262 -.00000197  00000+0 -80169-4 0  9994
2 31792  70.9392 113.7691 0009280 230.6639 129.3660 14.12946561970125
SL-16 R/B               
1 31793U 07029B   26111.64217435  .00000183  00000+0  11956-3 0  9990
2 31793  70.9736  82.0924 0002576 269.0904 263.9329 14.14842598971447
KORONAS-FOTON           
1 33504U 09003A   26111.79973346  .00010309  00000+0  22148-3 0  9998
2 33504  82.4309 231.0170 0010132   6.3315 353.8059 15.44465733952395
CZ-2C R/B               
1 37731U 11030B   26111.77644068  .00000616  00000+0  83957-4 0  9997
2 37731  97.8612  68.2028 0051616 208.7224 213.7652 14.81347337796476
H-2A R/B                
1 38341U 12025E   26111.88965850  .00001241  00000+0  11639-3 0  9999
2 38341  98.4796  82.4246 0044311 169.5693 190.6455 14.95424939754671
SHIJIAN-16 (SJ-16)      
1 39358U 13057A   26111.86692060  .00001278  00000+0  12715-3 0  9998
2 39358  74.9703 103.3394 0016035   1.8578 358.2667 14.92468269677948
SL-4 R/B                
1 39679U 14021B   26111.32962554  .00011518  00000+0  24823-3 0  9996
2 39679  51.6057 129.0257 0092935 258.9555 100.0966 15.40576696662840
ALOS-2                  
1 39766U 14029A   26111.86864674 -.00000368  00000+0 -42353-4 0  9996
2 39766  97.9202 209.8381 0001832  88.1428 271.9994 14.79462921643254
YAOGAN-29               
1 41038U 15069A   26111.84103584  .00000589  00000+0  79059-4 0  9996
2 41038  98.0075 140.3741 0001548 147.3010 212.8299 14.83038649562272
ASTRO-H (HITOMI)        
1 41337U 16012A   26111.59696814  .00002128  00000+0  12119-3 0  9996
2 41337  30.9988  79.5941 0009452  42.8515 317.2859 15.10251208558724
HXMT (HUIYAN)           
1 42758U 17034A   26111.75212791  .00002594  00000+0  13568-3 0  9991
2 42758  43.0135 137.1597 0030861 149.4136 210.8519 15.17965060489088
SAOCOM 1A               
1 43641U 18076A   26111.83224572  .00000683  00000+0  92358-4 0  9991
2 43641  97.8897 299.3955 0001557  89.7424 270.3967 14.82152500407757
H-2A R/B                
1 43682U 18084L   26111.87795279  .00016613  00000+0  37461-3 0  9999
2 43682  98.8657 338.5473 0023206 230.9459 128.9719 15.43074589412433
SAOCOM 1B               
1 46265U 20059A   26111.86347618  .00000301  00000+0  44379-4 0  9997
2 46265  97.8888 298.5202 0001542  84.7202 275.4187 14.82141911305145
CSS (TIANHE)            
1 48274U 21035A   26111.88058793  .00024222  00000+0  26437-3 0  9991
2 48274  41.4677 304.9452 0006589 251.1279 108.8847 15.62764680284362
COSMOS 2550             
1 48865U 21056A   26111.88036139 -.00000189  00000+0  89164-7 0  9997
2 48865  67.1424 270.2310 0008414 269.4763  90.5427 15.33831100270085
CZ-2C R/B               
1 52794U 22058K   26111.67146477  .00036832  00000+0  47938-3 0  9992
2 52794  50.1867  96.6404 0039538  24.8163 335.4699 15.57406928216822
CZ-2C R/B               
1 54039U 22132E   26111.75361646  .00042692  00000+0  41922-3 0  9993
2 54039  97.2945 116.5130 0012952 290.7636  69.2236 15.65832107197102
GSLV R/B                
1 54149U 22138AN  26111.83871494  .00001714  00000+0  14584-3 0  9991
2 54149  87.3822 151.9063 0021233   2.1496 357.9823 14.97009830190382
XRISM                   
1 57800U 23137A   26111.42564583  .00004836  00000+0  26946-3 0  9994
2 57800  31.0034   7.1393 0007478 110.4258 249.7184 15.11960637144264
ACS3                    
1 59588U 24077B   26111.09303868  .00002141  00000+0  16834-2 0  9994
2 59588  97.1853  42.6817 0067461 351.9794   8.0287 13.91500543100096
HTV-X1                  
1 66174U 25241A   26111.55778363  .00004408  00000+0  14893-3 0  9996
2 66174  51.6361 226.3273 0007771 338.8494  21.2165 15.32714281 27510
SZ-21 MODULE            
1 66515U 25246C   26111.81188786  .00035741  00000+0  26784-3 0  9999
2 66515  41.4737 297.2219 0004343 305.2560  54.7877 15.71885308 24851

ISS (ZARYA)             
1 25544U 98067A   26111.74820810  .00009534  00000+0  18169-3 0  9999
2 25544  51.6323 219.4368 0006711 334.6967  25.3692 15.48877266563003
POISK                   
1 36086U 09060A   26111.74820810  .00009534  00000+0  18169-3 0  9997
2 36086  51.6323 219.4368 0006711 334.6967  25.3692 15.48877266562948
CSS (TIANHE)            
1 48274U 21035A   26111.88058793  .00024222  00000+0  26437-3 0  9991
2 48274  41.4677 304.9452 0006589 251.1279 108.8847 15.62764680284362
ISS (NAUKA)             
1 49044U 21066A   26111.74820810  .00009534  00000+0  18169-3 0  9995
2 49044  51.6323 219.4368 0006711 334.6967  25.3692 15.48877266562980
FREGAT DEB              
1 49271U 11037PF  26111.21656224  .00003101  00000+0  47935-2 0  9998
2 49271  51.6429 173.0397 0943553 156.8872 207.7485 12.41014465217975
CSS (WENTIAN)           
1 53239U 22085A   26111.68920682  .00043157  00000+0  46845-3 0  9990
2 53239  41.4673 306.1165 0005248 250.5621 109.4652 15.62693676284676
CSS (MENGTIAN)          
1 54216U 22143A   26111.88058793  .00024222  00000+0  26437-3 0  9995
2 54216  41.4677 304.9452 0006589 251.1279 108.8847 15.62764680284376
TIANZHOU-9              
1 64786U 25149A   26111.88058793  .00024222  00000+0  26437-3 0  9997
2 64786  41.4677 304.9452 0006589 251.1279 108.8847 15.62764680284379
HRC MONOBLOCK CAMERA    
1 66052U 98067XR  26111.55822406  .00052279  00000+0  48530-3 0  9999
2 66052  51.6257 208.4044 0004495 315.1253  44.9379 15.66906404 29100
HTV-X1                  
1 66174U 25241A   26111.55778363  .00004408  00000+0  14893-3 0  9996
2 66174  51.6361 226.3273 0007771 338.8494  21.2165 15.32714281 27510
SZ-21 MODULE            
1 66515U 25246C   26111.81188786  .00035741  00000+0  26784-3 0  9999
2 66515  41.4737 297.2219 0004343 305.2560  54.7877 15.71885308 24851
SHENZHOU-22             
1 66645U 25272A   26111.88058793  .00024222  00000+0  26437-3 0  9990
2 66645  41.4677 304.9452 0006589 251.1279 108.8847 15.62764680284375
SOYUZ-MS 28             
1 66664U 25275A   26111.74820810  .00009534  00000+0  18169-3 0  9998
2 66664  51.6323 219.4368 0006711 334.6967  25.3692 15.48877266563225
DUPLEX                  
1 66906U 98067XS  26111.76396370  .00029074  00000+0  37245-3 0  9994
2 66906  51.6276 213.5422 0004421 325.7792  34.2916 15.58923763 21840
ISS OBJECT XT           
1 66907U 98067XT  26110.56491386  .00342383  54212-4  11379-2 0  9994
2 66907  51.6192 209.1860 0011710 337.8574  22.1924 15.89658474 21793
ISS OBJECT XU           
1 66908U 98067XU  26110.99509683  .00476464  97406-4  15071-2 0  9995
2 66908  51.6197 206.8010 0011661 338.6358  21.4160 15.90584480 21863
SILVERSAT               
1 66909U 98067XV  26111.41676986  .02238858  60623-2  17497-2 0  9993
2 66909  51.6081 201.2837 0013138 340.8561  19.1960 16.15331909 21972
ISS OBJECT XW           
1 66910U 98067XW  26110.54627720  .00262547  00000+0  10336-2 0  9995
2 66910  51.6185 209.8088 0010827 332.6022  27.4409 15.85521877 21784
ISS OBJECT XY           
1 66912U 98067XY  26110.57540914  .00114465  00000+0  81724-3 0  9994
2 66912  51.6234 213.8212 0007338 328.9976  31.0588 15.72889119 21729
KNACKSAT-2              
1 67683U 98067XZ  26111.30918558  .00041155  00000+0  59840-3 0  9994
2 67683  51.6303 219.5073 0011977 346.8750  13.1928 15.55273526 11417
CORAL                   
1 67684U 98067YA  26111.60756476  .00084620  00000+0  94597-3 0  9999
2 67684  51.6276 216.2437 0015784 340.8265  19.2133 15.61865265 11486
GXIBA-1                 
1 67685U 98067YB  26111.03211719  .00043678  00000+0  61634-3 0  9997
2 67685  51.6293 220.6569 0013875 342.9883  17.0642 15.56031272 11375
UITMSAT-2               
1 67686U 98067YC  26111.57638376  .00052850  00000+0  70302-3 0  9993
2 67686  51.6287 217.5437 0010869 325.3971  34.6312 15.57578897 11460
HMU-SAT2                
1 67687U 98067YD  26111.55529085  .00039493  00000+0  56528-3 0  9990
2 67687  51.6319 218.1564 0010161 326.4092  33.6254 15.55743238 11371
LEOPARD                 
1 67688U 98067YE  26111.01405438  .00048143  00000+0  65933-3 0  9999
2 67688  51.6305 220.5395 0010493 323.1792  36.8478 15.56843109 11298
CREW DRAGON 12          
1 67796U 26031A   26111.74820810  .00009534  00000+0  18169-3 0  9996
2 67796  51.6323 219.4368 0006711 334.6967  25.3692 15.48877266563109
PROGRESS-MS 33          
1 68319U 26058A   26111.74820810  .00009534  00000+0  18169-3 0  9997
2 68319  51.6323 219.4368 0006711 334.6967  25.3692 15.48877266  4617
CYGNUS NG-24            
1 68689U 26079A   26111.49012659  .00009217  00000+0  17597-3 0  9998
2 68689  51.6324 220.7136 0006728 333.7588  26.3059 15.48871312  1535
